IRIDIUM 106             
1 41917U 17003A   23292.49908537  .00000365  00000+0  12322-3 0  9992
2 41917  86.3956 134.6430 0001906  91.5360 268.6054 14.34222485353931
IRIDIUM 103             
1 41918U 17003B   23292.48640736  .00000453  00000+0  15463-3 0  9993
2 41918  86.3971 134.5518 0001765  80.6349 279.5046 14.34215935353950
IRIDIUM 109             
1 41919U 17003C   23292.49275628  .00000025  00000+0  17638-5 0  9992
2 41919  86.3956 134.5918 0002286  83.0347 277.1108 14.34214217353924
IRIDIUM 102             
1 41920U 17003D   23292.53077898  .00000478  00000+0  16375-3 0  9995
2 41920  86.3956 134.5207 0002315  85.7146 274.4314 14.34211247354016
IRIDIUM 105             
1 41921U 17003E   23292.50144877  .00000232  00000+0  75602-4 0  9992
2 41921  86.3920 102.9435 0001994  88.9660 271.1764 14.34224208355866
IRIDIUM 104             
1 41922U 17003F   23292.26440903  .00000416  00000+0  14146-3 0  9994
2 41922  86.3967 134.6587 0002018  76.1508 283.9913 14.34214332353969
IRIDIUM 114             
1 41923U 17003G   23292.48006412  .00000351  00000+0  11820-3 0  9996
2 41923  86.3957 134.5559 0002027  96.6579 263.4847 14.34220064353971
IRIDIUM 108             
1 41924U 17003H   23292.50835771  .00000229  00000+0  74647-4 0  9999
2 41924  86.3914 102.8809 0001800  95.0024 265.1378 14.34219025355859
